{"type": "Feature", "properties": {}, "geometry": {"type": "Polygon", "coordinates": [[[19.7922355, 50.011797], [19.7946877, 50.0060496], [19.7966312, 49.9973688], [19.7956655, 49.9952854], [19.796474, 49.9945366], [19.7987871, 49.9959671], [19.800006, 49.9957834], [19.8017101, 49.9934322], [19.8038601, 49.9943275], [19.8036124, 49.9929625], [19.8095351, 49.9921683], [19.8095568, 49.9929213], [19.8112295, 49.9937156], [19.8110141, 49.9944364], [19.8147548, 49.9944066], [19.8142121, 49.9951248], [19.8151575, 49.9958148], [19.8193464, 49.9969941], [19.8440425, 49.994502], [19.8490132, 49.9948749], [19.8492427, 49.9926744], [19.8482518, 49.9897896], [19.8487785, 49.985191], [19.8565634, 49.9855128], [19.8623943, 49.9847094], [19.8644438, 49.9832655], [19.8644857, 49.9801402], [19.8624424, 49.9798256], [19.8629842, 49.9765687], [19.8606953, 49.9759097], [19.8633488, 49.9748275], [19.8676682, 49.9744804], [19.8689333, 49.9724835], [19.8706692, 49.9717436], [19.8794366, 49.9714543], [19.8799765, 49.9740513], [19.8846945, 49.9761127], [19.8854402, 49.9769297], [19.8851328, 49.9779669], [19.8872794, 49.9793388], [19.8874035, 49.9803886], [19.8962633, 49.9804363], [19.9096517, 49.9819736], [19.9120007, 49.9813064], [19.9133463, 49.9798532], [19.9189848, 49.9799994], [19.9256973, 49.9813188], [19.927153, 49.980901], [19.9284075, 49.9791477], [19.9325897, 49.9787939], [19.9329771, 49.9768564], [19.9344718, 49.9764385], [19.9340521, 49.9755714], [19.9377745, 49.9745374], [19.9402646, 49.9752789], [19.940608, 49.9744606], [19.9432711, 49.9739451], [19.9428496, 49.9733409], [19.9444424, 49.9730598], [19.9449165, 49.9722153], [19.9476494, 49.9722927], [19.9506951, 49.9710788], [19.9508387, 49.9698584], [19.9517147, 49.9695172], [19.9538055, 49.9700766], [19.9557148, 49.9686563], [19.9556714, 49.9676668], [19.9588683, 49.9682463], [19.9594615, 49.9692598], [19.9616001, 49.9689444], [19.9616766, 49.9683258], [19.9634431, 49.9685611], [19.963093, 49.9723236], [19.9670402, 49.9731654], [19.9642996, 49.977746], [19.9689581, 49.9794891], [19.9778601, 49.9811697], [19.9825869, 49.9806997], [19.9813777, 49.9782335], [19.9822611, 49.9760921], [19.9812796, 49.9726303], [19.9972934, 49.9739454], [20.0011253, 49.9756835], [20.0033912, 49.9751532], [20.0029029, 49.9746767], [20.0080967, 49.9750424], [20.0076733, 49.9754066], [20.0100162, 49.9772436], [20.0097018, 49.9801825], [20.0137671, 49.9822941], [20.0186719, 49.9863158], [20.015427, 49.9888524], [20.0122329, 49.9946847], [20.004425, 49.9969718], [20.0032545, 49.9980064], [20.002761, 49.9992344], [20.0041448, 50.0011869], [20.0063078, 50.0024886], [20.0182813, 50.0043264], [20.018814, 50.0031142], [20.0235956, 50.0030138], [20.0284838, 49.9991784], [20.0293207, 49.9996221], [20.0288916, 50.0011012], [20.0356987, 50.0014096], [20.0391697, 49.999826], [20.0473937, 49.9989794], [20.0479678, 49.999092], [20.0482829, 50.0041695], [20.0551691, 50.0041137], [20.0582874, 50.005657], [20.0607528, 50.0053323], [20.0623305, 50.0063225], [20.0630346, 50.008132], [20.0656667, 50.0077867], [20.0673863, 50.0097652], [20.0676575, 50.0130862], [20.0697498, 50.0183343], [20.0684331, 50.0219953], [20.0671634, 50.0221882], [20.0648646, 50.0242708], [20.0676984, 50.0254493], [20.0722738, 50.0297528], [20.0735681, 50.0321926], [20.0817144, 50.0342604], [20.0797312, 50.0358002], [20.0838074, 50.0378975], [20.0810186, 50.0387092], [20.0803266, 50.0407033], [20.0836815, 50.0415626], [20.0879882, 50.044891], [20.0891016, 50.0448222], [20.0922827, 50.0420709], [20.0915528, 50.0395854], [20.092179, 50.0380154], [20.0959551, 50.0369577], [20.099366, 50.0378006], [20.1031885, 50.0411843], [20.1068556, 50.0424426], [20.1157537, 50.0425944], [20.1250609, 50.0397312], [20.1276645, 50.0398158], [20.1304304, 50.0409091], [20.1352977, 50.0449041], [20.1392936, 50.0459408], [20.1535136, 50.0430569], [20.1595405, 50.0428268], [20.1838486, 50.0480159], [20.188534, 50.048344], [20.1928556, 50.0475321], [20.2011191, 50.0438637], [20.2050462, 50.0436423], [20.2091755, 50.0447922], [20.2130242, 50.0503282], [20.2173455, 50.053434], [20.2122579, 50.0576876], [20.2063581, 50.0650133], [20.2043802, 50.0648186], [20.1991841, 50.0669959], [20.1989595, 50.0681528], [20.197546, 50.0691472], [20.1930122, 50.0704691], [20.1929623, 50.0722761], [20.1944545, 50.0734309], [20.1995664, 50.0742424], [20.1994603, 50.0748687], [20.1956059, 50.0763963], [20.1955268, 50.0781366], [20.1900179, 50.0819864], [20.1893085, 50.0847394], [20.1849291, 50.0860661], [20.1891868, 50.0864468], [20.1928405, 50.0878221], [20.1917423, 50.0916509], [20.1916327, 50.0974844], [20.1931038, 50.1032182], [20.1950586, 50.1054128], [20.1961313, 50.1082614], [20.1978859, 50.108509], [20.2022411, 50.1111167], [20.2050176, 50.1111306], [20.2090788, 50.1155647], [20.20398, 50.1159551], [20.2038554, 50.1171524], [20.2047727, 50.117386], [20.2016157, 50.1174874], [20.2012909, 50.120432], [20.1962474, 50.1196803], [20.1954917, 50.118492], [20.1925024, 50.119634], [20.1897515, 50.1177983], [20.1868614, 50.1182179], [20.1853525, 50.1167593], [20.1824523, 50.1178363], [20.1815673, 50.1166257], [20.1749363, 50.1197894], [20.1731873, 50.1188238], [20.1723928, 50.1203855], [20.1658057, 50.1205136], [20.1658476, 50.1215309], [20.1590596, 50.1216058], [20.1591962, 50.1208013], [20.1563402, 50.1185711], [20.1543396, 50.1194579], [20.1468826, 50.1143435], [20.1446619, 50.111458], [20.1431143, 50.1064684], [20.1379383, 50.1065685], [20.1208459, 50.1084578], [20.1199843, 50.1164544], [20.1083761, 50.116733], [20.0962474, 50.1193493], [20.0942206, 50.1163003], [20.0941148, 50.1147935], [20.0881601, 50.1134611], [20.0879526, 50.1114018], [20.0843567, 50.111225], [20.0837206, 50.1098115], [20.0783755, 50.1083227], [20.0772818, 50.1082195], [20.0754935, 50.1094895], [20.0789653, 50.1124076], [20.0702607, 50.1127399], [20.0701623, 50.1139286], [20.062737, 50.1134483], [20.0615879, 50.1135309], [20.0617882, 50.1142662], [20.0584777, 50.1146945], [20.056429, 50.1126015], [20.0535016, 50.1128233], [20.0518694, 50.1106397], [20.0507242, 50.1111923], [20.0507638, 50.1102854], [20.0469527, 50.1093135], [20.0454733, 50.1111558], [20.0447071, 50.1103223], [20.0441835, 50.1106947], [20.0419197, 50.1134874], [20.0400102, 50.1133483], [20.0370829, 50.1127415], [20.0369446, 50.1113267], [20.0352289, 50.1099936], [20.0357976, 50.1086157], [20.0316243, 50.1078848], [20.0300359, 50.105885], [20.0280024, 50.1057673], [20.0276286, 50.1043586], [20.0242413, 50.1039435], [20.0175664, 50.1064441], [20.0045919, 50.1071566], [19.9948253, 50.107011], [19.9866724, 50.1047823], [19.9813581, 50.1055659], [19.9807161, 50.1049586], [19.9706325, 50.1072095], [19.9632684, 50.1101987], [19.960423, 50.1084806], [19.9581628, 50.1083127], [19.9574397, 50.110596], [19.9558953, 50.1105161], [19.9511972, 50.114074], [19.9487605, 50.116543], [19.9473325, 50.1193374], [19.9413115, 50.1190376], [19.9401713, 50.1189269], [19.939974, 50.1162457], [19.9277364, 50.1135073], [19.9272873, 50.1146219], [19.9249411, 50.1140731], [19.9257387, 50.1123993], [19.9244441, 50.111302], [19.9260292, 50.1081195], [19.9272073, 50.1072755], [19.9293568, 50.1077074], [19.9271045, 50.1102451], [19.9275991, 50.1103925], [19.9310637, 50.1086264], [19.9312038, 50.1074736], [19.9293572, 50.1066499], [19.9307884, 50.104812], [19.9288719, 50.1037316], [19.9281495, 50.1049175], [19.926971, 50.1048116], [19.9187832, 50.1013425], [19.91889, 50.1001854], [19.9151089, 50.1009326], [19.9140637, 50.105612], [19.9086826, 50.1178065], [19.9058817, 50.1209799], [19.9005009, 50.1255086], [19.8983767, 50.1250084], [19.8995872, 50.1257955], [19.8925084, 50.1260797], [19.8925564, 50.1243443], [19.8904671, 50.1240076], [19.8914092, 50.1225059], [19.8844237, 50.1221565], [19.8807842, 50.1204901], [19.8789145, 50.1183113], [19.8766689, 50.1125778], [19.8752732, 50.1110458], [19.8673644, 50.1074484], [19.8633191, 50.1073318], [19.8618268, 50.1059494], [19.8647161, 50.100238], [19.8673734, 50.0991782], [19.8615817, 50.0926584], [19.8518718, 50.094429], [19.8449853, 50.0922214], [19.8430963, 50.0923842], [19.8364668, 50.0893369], [19.8355677, 50.089588], [19.8343732, 50.0883064], [19.829828, 50.0881164], [19.8279977, 50.0858011], [19.823283, 50.0825909], [19.8182886, 50.0809939], [19.8112522, 50.080164], [19.8082856, 50.0783909], [19.8060968, 50.0722633], [19.8016969, 50.0692124], [19.804608, 50.0645511], [19.8045257, 50.0621045], [19.809293, 50.0610013], [19.8111968, 50.0584559], [19.8158687, 50.0593535], [19.8219393, 50.0582158], [19.820733, 50.056804], [19.8194993, 50.0514606], [19.8112881, 50.0433214], [19.8106401, 50.0406543], [19.8124634, 50.039831], [19.8134315, 50.0354073], [19.8157146, 50.0337], [19.8210675, 50.0318898], [19.8263252, 50.0324058], [19.8291006, 50.0258168], [19.8277084, 50.0237589], [19.8218118, 50.0208709], [19.8185913, 50.0203663], [19.815174, 50.0215123], [19.8115909, 50.0258526], [19.8094003, 50.0265381], [19.8058965, 50.0260906], [19.802612, 50.0236393], [19.7992664, 50.0168043], [19.7938686, 50.014403], [19.7922355, 50.011797]]]}}